{
  "norad_id": 53139,
  "name": "STARLINK-4185",
  "history": [
    {
      "epoch": "2026-03-28T06:33:42.321600Z",
      "apogee_km": 540.6570305944297,
      "perigee_km": 538.8237930802925,
      "latitude_deg": -4.559103784803573e-06,
      "longitude_deg": 166.57273918479953,
      "height_km": 540.4592901651156,
      "semi_major_axis_km": 6917.87741183736,
      "eccentricity": 0.0001325,
      "inclination_deg": 53.2165,
      "raan_deg": 90.6953,
      "arg_perigee_deg": 78.8777,
      "mean_anomaly_deg": 281.2364,
      "mean_motion_rev_day": 15.08840974
    },
    {
      "epoch": "2026-03-29T04:49:08.037408Z",
      "apogee_km": 540.8054354540536,
      "perigee_km": 538.8116835438059,
      "latitude_deg": 3.3866081885416536e-05,
      "longitude_deg": -172.3616500198187,
      "height_km": 540.3533267755712,
      "semi_major_axis_km": 6917.9455594989295,
      "eccentricity": 0.0001441,
      "inclination_deg": 53.2163,
      "raan_deg": 86.5321,
      "arg_perigee_deg": 69.3946,
      "mean_anomaly_deg": 290.7201,
      "mean_motion_rev_day": 15.08818679
    },
    {
      "epoch": "2026-03-30T04:39:55.012608Z",
      "apogee_km": 540.8239857339631,
      "perigee_km": 538.7209412570601,
      "latitude_deg": 6.909865615726002e-05,
      "longitude_deg": -175.49778930308636,
      "height_km": 540.392377743153,
      "semi_major_axis_km": 6917.909463495512,
      "eccentricity": 0.000152,
      "inclination_deg": 53.2172,
      "raan_deg": 82.071,
      "arg_perigee_deg": 74.8048,
      "mean_anomaly_deg": 285.3113,
      "mean_motion_rev_day": 15.08830488
    },
    {
      "epoch": "2026-03-30T06:15:17.943840Z",
      "apogee_km": 540.8412522780854,
      "perigee_km": 538.685634499926,
      "latitude_deg": 3.064246320650493e-05,
      "longitude_deg": 160.2940485931578,
      "height_km": 540.3826193610864,
      "semi_major_axis_km": 6917.900443389006,
      "eccentricity": 0.0001558,
      "inclination_deg": 53.217,
      "raan_deg": 81.7737,
      "arg_perigee_deg": 75.1472,
      "mean_anomaly_deg": 284.9693,
      "mean_motion_rev_day": 15.08833439
    },
    {
      "epoch": "2026-03-30T06:15:17.944704Z",
      "apogee_km": 540.8413906360956,
      "perigee_km": 538.6854961419167,
      "latitude_deg": 2.8858060233120853e-05,
      "longitude_deg": 160.29404365654142,
      "height_km": 540.3825838953303,
      "semi_major_axis_km": 6917.900443389006,
      "eccentricity": 0.00015582,
      "inclination_deg": 53.217,
      "raan_deg": 81.7737,
      "arg_perigee_deg": 75.1472,
      "mean_anomaly_deg": 284.9693,
      "mean_motion_rev_day": 15.08833439
    }
  ]
}